OBJECT_NAME,OBJECT_ID,EPOCH,MEAN_MOTION,ECCENTRICITY,INCLINATION,RA_OF_ASC_NODE,ARG_OF_PERICENTER,MEAN_ANOMALY,EPHEMERIS_TYPE,CLASSIFICATION_TYPE,NORAD_CAT_ID,ELEMENT_SET_NO,REV_AT_EPOCH,BSTAR,MEAN_MOTION_DOT,MEAN_MOTION_DDOT
STAR ONE D2,2021-069A,2026-06-15T04:10:20.243424,1.00270847,.00020579,0.0162,337.8384,134.2817,143.8251,0,U,49055,999,1792,0,0,0
EUTELSAT QUANTUM,2021-069B,2026-06-15T04:43:57.068256,1.00272017,.00020329,0.0104,348.0177,96.5728,297.5800,0,U,49056,999,1790,0,.13E-5,0
ZHONGXING-2E,2021-071A,2026-06-15T01:16:38.720352,1.00270466,.0001697,0.0381,223.7417,268.3035,248.5320,0,U,49062,999,1801,0,-.286E-5,0
TJS-7,2021-077A,2026-06-15T06:52:43.035744,1.00269621,.00019632,0.5030,86.1055,333.0157,208.1393,0,U,49115,999,953,0,-.12E-5,0
CHINASAT 9B,2021-080A,2026-06-15T01:00:38.786112,1.00269547,.00013858,0.0478,90.9287,22.6568,266.3270,0,U,49125,999,1762,0,-.308E-5,0
SHIJIAN-21 (SJ-21),2021-094A,2026-06-15T07:26:42.628704,1.00271471,.00498378,5.1087,61.1929,168.2979,273.8284,0,U,49330,999,534,0,-.348E-5,0
SES-17,2021-095A,2026-06-15T04:14:04.447104,1.00266066,.00009638,0.0257,35.6593,102.1718,122.0513,0,U,49332,999,1783,0,-.268E-5,0
SYRACUSE 4A,2021-095B,2026-06-15T06:25:57.614016,1.00269448,.00014492,0.0173,354.1029,86.8750,324.5725,0,U,49333,999,1792,0,.139E-5,0
QZS-1R (MICHIBIKI-1R),2021-096A,2026-06-14T15:24:50.050080,1.00256090,.07546764,37.4568,79.6218,271.7468,276.9403,0,U,49336,999,1698,0,-.276E-5,0
ZHONGXING-1D,2021-114A,2026-06-15T06:50:10.291776,1.00269678,.00006774,0.0289,234.2894,352.0077,270.0072,0,U,49505,999,1680,0,-.333E-5,0
STPSAT-6,2021-118A,2026-06-15T05:41:12.086880,1.00273036,.00014861,0.3161,85.4066,246.0259,265.7442,0,U,49817,999,1655,0,-.42E-6,0
EXPRESS AMU-7,2021-123A,2026-06-15T08:00:28.259424,1.00269588,.00007082,0.0137,296.4484,44.6347,187.6540,0,U,50001,999,1652,0,-.24E-5,0
EXPRESS AMU-3,2021-123B,2026-06-14T23:35:19.643136,1.00269503,.00001885,0.0209,329.5636,62.3420,328.0956,0,U,50002,999,700,0,0,0
TIANLIAN 2-02,2021-124A,2026-06-15T05:19:08.692896,1.00271019,.00014353,0.7953,86.1571,199.5632,228.5450,0,U,50005,999,1660,0,-.11E-6,0
TURKSAT 5B,2021-126A,2026-06-14T15:01:05.484288,1.00273454,.00034935,0.0678,339.8428,11.2535,179.1044,0,U,50212,999,1627,0,.153E-5,0
INMARSAT 6-F1,2021-128A,2026-06-14T23:46:18.920928,1.00267498,.00003885,0.0135,299.4891,1.1640,42.9719,0,U,50319,999,1623,0,-.166E-5,0
SHIYAN-12 01 (SY-12 01),2021-129A,2026-06-14T17:22:10.519104,1.00038769,.0003245,3.6681,79.9422,284.4747,221.3020,0,U,50321,999,1647,0,.73E-6,0
SHIYAN-12 02 (SY-12 02),2021-129B,2026-06-14T18:33:08.254080,1.00489859,.0002656,3.6679,79.9477,61.2901,127.1262,0,U,50322,999,1647,0,-.243E-5,0
TJS-9,2021-135A,2026-06-15T06:52:10.100064,1.00268141,.0004233,0.0431,252.6735,156.1869,94.9258,0,U,50574,999,1641,0,-.296E-5,0
USA 324,2022-006A,2026-06-06T02:06:38.886912,1.00289779,.000284,0.7690,83.2777,165.6787,110.1567,0,U,51280,999,1602,0,-.58E-6,0
GOES 18,2022-021A,2026-06-15T04:49:23.365632,1.00272501,.00005114,0.0096,95.6793,73.9917,29.1697,0,U,51850,999,657,0,.101E-5,0
ZHONGXING-6D,2022-038A,2026-06-14T22:06:53.870112,1.00273106,.00005037,0.0154,287.1741,153.0902,279.7420,0,U,52255,999,1540,0,-.348E-5,0
NILESAT 301,2022-061A,2026-06-15T06:10:59.048832,1.00270325,.00046165,0.0464,4.1943,50.0675,295.0363,0,U,52817,999,1471,0,-.54E-6,0
CMS-02 (GSAT-24),2022-067A,2026-06-14T23:46:03.945216,1.00271112,.00013921,0.0469,104.1391,261.6831,336.9792,0,U,52903,999,1458,0,-.16E-5,0
MEASAT 3D,2022-067B,2026-06-15T00:32:18.087648,1.00272591,.00014498,0.0322,327.9366,39.8109,355.1280,0,U,52904,999,1462,0,-.237E-5,0
SES-22,2022-071A,2026-06-15T05:33:20.341152,1.00270213,.00012423,0.0147,347.3849,83.4694,136.9860,0,U,52933,999,750,0,.108E-5,0
WFOV (USA 332),2022-073A,2026-06-15T06:47:03.090624,1.00267393,.00021759,3.7062,78.5520,236.0719,169.9223,0,U,52940,999,1435,0,-.361E-5,0
TIANLIAN 2-03,2022-078A,2026-06-14T16:34:45.079392,1.00271787,.00015472,0.6653,77.0045,327.4633,117.7944,0,U,53100,999,1452,0,.78E-6,0
SBIRS GEO-6 (USA 336),2022-092A,2026-06-15T06:52:40.052352,1.00270975,.00016901,3.2609,317.4638,121.1210,67.1645,0,U,53355,999,1421,0,-.286E-5,0
EUTELSAT KONNECT VHTS,2022-110A,2026-06-15T06:13:43.785984,1.00267917,.00023455,0.0658,101.7306,325.6528,292.2867,0,U,53765,999,681,0,.2E-6,0
ZHONGXING-1E,2022-112A,2026-06-14T23:45:33.992928,1.00272410,.00008772,0.0478,227.7410,86.6946,26.6312,0,U,53813,999,1382,0,-.144E-5,0
